NORAD_CAT_ID,OBJECT_NAME,OBJECT_TYPE,EPOCH,MEAN_MOTION,ECCENTRICITY,INCLINATION,RA_OF_ASC_NODE,ARG_OF_PERICENTER,MEAN_ANOMALY,BSTAR,MEAN_MOTION_DOT,MEAN_MOTION_DDOT,TLE_LINE0,TLE_LINE1,TLE_LINE2,SEMIMAJOR_AXIS,PERIOD,APOGEE,PERIGEE,DECAYED
55961.0,STARLINK-5933,PAYLOAD,2023-12-13 20:52:41,14.98332096,0.0002905,69.9988,163.8598,271.2663,88.8163,5.6893e-05,5.86e-06,0.0,0 STARLINK-5933,1 55961U 23037AZ  23347.86992121  .00000586  00000-0  56893-4 0  9992,2 55961  69.9988 163.8598 0002905 271.2663  88.8163 14.98332096 42128,6950.186,96.107,574.07,570.032,0.0
55961.0,STARLINK-5933,PAYLOAD,2023-12-14 14:30:09,14.98336322,0.0002932,69.9988,162.0084,270.2929,89.7894,5.3374e-05,5.44e-06,0.0,0 STARLINK-5933,1 55961U 23037AZ  23348.60427614  .00000544  00000-0  53374-4 0  9990,2 55961  69.9988 162.0084 0002932 270.2929  89.7894 14.98336322 42232,6950.173,96.107,574.076,570.001,0.0
55961.0,STARLINK-5933,PAYLOAD,2023-12-14 20:54:41,14.98337699,0.0002873,69.9989,161.3352,268.6411,91.4419,6.7466e-05,7.12e-06,0.0,0 STARLINK-5933,1 55961U 23037AZ  23348.87131345  .00000712  00000-0  67466-4 0  9996,2 55961  69.9989 161.3352 0002873 268.6411  91.4419 14.98337699 42617,6950.169,96.107,574.031,570.037,0.0
55961.0,STARLINK-5933,PAYLOAD,2023-12-15 14:32:09,14.98340792,0.0002867,69.9988,159.4833,266.5488,93.5343,4.336e-05,4.25e-06,0.0,0 STARLINK-5933,1 55961U 23037AZ  23349.60566721  .00000425  00000-0  43360-4 0  9996,2 55961  69.9988 159.4833 0002867 266.5488  93.5343 14.98340792 42383,6950.16,96.106,574.017,570.032,0.0
55961.0,STARLINK-5933,PAYLOAD,2023-12-15 20:56:41,14.98341043,0.0002862,69.9988,158.8101,266.7518,93.3313,4.3051e-05,4.21e-06,0.0,0 STARLINK-5933,1 55961U 23037AZ  23349.87270501  .00000421  00000-0  43051-4 0  9996,2 55961  69.9988 158.8101 0002862 266.7518  93.3313 14.98341043 42425,6950.159,96.106,574.013,570.035,0.0
55961.0,STARLINK-5933,PAYLOAD,2023-12-16 14:34:10,14.98336431,0.0002763,69.999,156.959,263.3946,96.6898,-5.1302e-05,-7.05e-06,0.0,0 STARLINK-5933,1 55961U 23037AZ  23350.60706585 -.00000705  00000-0 -51302-4 0  9990,2 55961  69.9990 156.9590 0002763 263.3946  96.6898 14.98336431 42538,6950.173,96.107,573.958,570.118,0.0
55961.0,STARLINK-5933,PAYLOAD,2023-12-16 19:22:34,14.98333833,0.0002811,69.9991,156.4541,264.3416,95.7422,-8.067e-05,-1.055e-05,0.0,0 STARLINK-5933,1 55961U 23037AZ  23350.80734753 -.00001055  00000-0 -80670-4 0  9999,2 55961  69.9991 156.4541 0002811 264.3416  95.7422 14.98333833 42904,6950.181,96.107,574.0,570.092,0.0
55961.0,STARLINK-5933,PAYLOAD,2023-12-16 20:58:42,14.98333956,0.000282,69.9991,156.2858,264.8588,95.2249,-7.8768e-05,-1.033e-05,0.0,0 STARLINK-5933,1 55961U 23037AZ  23350.87410716 -.00001033  00000-0 -78768-4 0  9997,2 55961  69.9991 156.2858 0002820 264.8588  95.2249 14.98333956 42579,6950.181,96.107,574.006,570.086,0.0
55961.0,STARLINK-5933,PAYLOAD,2023-12-17 14:36:11,14.98335373,0.0002859,69.9992,154.4345,265.6013,94.4819,-7.0899e-05,-9.39e-06,0.0,0 STARLINK-5933,1 55961U 23037AZ  23351.60846325 -.00000939  00000-0 -70899-4 0  9999,2 55961  69.9992 154.4345 0002859 265.6013  94.4819 14.98335373 42686,6950.176,96.107,574.028,570.054,0.0
55961.0,STARLINK-5933,PAYLOAD,2023-12-17 19:24:35,14.98335066,0.0002855,69.9992,153.9295,265.3142,94.7691,-6.8119e-05,-9.06e-06,0.0,0 STARLINK-5933,1 55961U 23037AZ  23351.80874269 -.00000906  00000-0 -68119-4 0  9995,2 55961  69.9992 153.9295 0002855 265.3142  94.7691 14.98335066 43052,6950.177,96.107,574.027,570.058,0.0
55961.0,STARLINK-5933,PAYLOAD,2023-12-17 21:00:43,14.98335423,0.0002857,69.9992,153.7613,265.0808,95.0024,-6.3953e-05,-8.56e-06,0.0,0 STARLINK-5933,1 55961U 23037AZ  23351.87550214 -.00000856  00000-0 -63953-4 0  9998,2 55961  69.9992 153.7613 0002857 265.0808  95.0024 14.98335423 42726,6950.176,96.107,574.027,570.055,0.0
55961.0,STARLINK-5933,PAYLOAD,2023-12-18 14:38:11,14.98332398,0.0002959,69.9991,151.91,267.0307,93.0514,3.0665e-05,2.73e-06,0.0,0 STARLINK-5933,1 55961U 23037AZ  23352.60985908  .00000273  00000-0  30665-4 0  9997,2 55961  69.9991 151.9100 0002959 267.0307  93.0514 14.98332398 42837,6950.185,96.107,574.107,569.994,0.0
55961.0,STARLINK-5933,PAYLOAD,2023-12-18 19:26:35,14.98333236,0.0002942,69.9992,151.4053,266.3309,93.7513,3.8872e-05,3.71e-06,0.0,0 STARLINK-5933,1 55961U 23037AZ  23352.81013795  .00000371  00000-0  38872-4 0  9993,2 55961  69.9992 151.4053 0002942 266.3309  93.7513 14.98333236 43206,6950.183,96.107,574.093,570.003,0.0
55961.0,STARLINK-5933,PAYLOAD,2023-12-18 21:02:43,14.98334051,0.0002939,69.9993,151.2373,265.8999,94.1824,4.6491e-05,4.62e-06,0.0,0 STARLINK-5933,1 55961U 23037AZ  23352.87689706  .00000462  00000-0  46491-4 0  9997,2 55961  69.9993 151.2373 0002939 265.8999  94.1824 14.98334051 42873,6950.18,96.107,574.088,570.003,0.0
55961.0,STARLINK-5933,PAYLOAD,2023-12-19 14:40:12,14.98331522,0.0002856,69.9996,149.3862,262.4583,97.6252,6.0648e-06,-2.1e-07,0.0,0 STARLINK-5933,1 55961U 23037AZ  23353.61125841 -.00000021  00000-0  60648-5 0  9998,2 55961  69.9996 149.3862 0002856 262.4583  97.6252 14.98331522 42982,6950.188,96.107,574.038,570.068,0.0
55961.0,STARLINK-5933,PAYLOAD,2023-12-19 19:28:36,14.98331355,0.0002859,69.9996,148.8813,262.5642,97.5192,3.1037e-06,-5.6e-07,0.0,0 STARLINK-5933,1 55961U 23037AZ  23353.81153835 -.00000056  00000-0  31037-5 0  9992,2 55961  69.9996 148.8813 0002859 262.5642  97.5192 14.98331355 43350,6950.189,96.107,574.041,570.067,0.0
55961.0,STARLINK-5933,PAYLOAD,2023-12-20 13:06:05,14.98330463,0.0002768,70.0001,147.0307,257.9967,102.0881,-2.562e-05,-3.99e-06,0.0,0 STARLINK-5933,1 55961U 23037AZ  23354.54589861 -.00000399  00000-0 -25620-4 0  9996,2 55961  70.0001 147.0307 0002768 257.9967 102.0881 14.98330463 43127,6950.191,96.107,573.98,570.133,0.0
55961.0,STARLINK-5933,PAYLOAD,2023-12-20 19:30:37,14.98330415,0.000277,70.0003,146.3577,259.1528,100.9319,-2.4098e-05,-3.8e-06,0.0,0 STARLINK-5933,1 55961U 23037AZ  23354.81293853 -.00000380  00000-0 -24098-4 0  9997,2 55961  70.0003 146.3577 0002770 259.1528 100.9319 14.98330415 43502,6950.192,96.107,573.982,570.131,0.0
55961.0,STARLINK-5933,PAYLOAD,2023-12-21 14:44:14,14.98326765,0.0002723,70.0007,144.3385,257.8092,102.2762,-3.0405e-05,-4.56e-06,0.0,0 STARLINK-5933,1 55961U 23037AZ  23355.61406137 -.00000456  00000-0 -30405-4 0  9990,2 55961  70.0007 144.3385 0002723 257.8092 102.2762 14.98326765 43285,6950.203,96.107,573.96,570.175,0.0
55961.0,STARLINK-5933,PAYLOAD,2023-12-22 11:33:59,14.98324821,0.0002732,70.0005,142.1495,257.7767,102.3086,3.1619e-06,-5.5e-07,0.0,0 STARLINK-5933,1 55961U 23037AZ  23356.48194352 -.00000055  00000-0  31619-5 0  9992,2 55961  70.0005 142.1495 0002732 257.7767 102.3086 14.98324821 43752,6950.209,96.107,573.973,570.175,0.0
55961.0,STARLINK-5933,PAYLOAD,2023-12-22 14:46:16,14.98325216,0.0002811,70.0005,141.8136,260.9202,99.1639,1.0562e-05,3.3e-07,0.0,0 STARLINK-5933,1 55961U 23037AZ  23356.61546359  .00000033  00000-0  10562-4 0  9993,2 55961  70.0005 141.8136 0002811 260.9202  99.1639 14.98325216 43439,6950.208,96.107,574.026,570.119,0.0
55961.0,STARLINK-5933,PAYLOAD,2023-12-22 19:34:40,14.98326235,0.0002841,70.0005,141.3085,262.3222,97.7614,1.2483e-05,5.6e-07,0.0,0 STARLINK-5933,1 55961U 23037AZ  23356.81574337  .00000056  00000-0  12483-4 0  9991,2 55961  70.0005 141.3085 0002841 262.3222  97.7614 14.98326235 43460,6950.205,96.107,574.044,570.095,0.0
55961.0,STARLINK-5933,PAYLOAD,2023-12-23 11:36:00,14.9833022,0.0002915,70.0001,139.6242,265.9186,94.164,5.8838e-05,6.09e-06,0.0,0 STARLINK-5933,1 55961U 23037AZ  23357.48333958  .00000609  00000-0  58838-4 0  9995,2 55961  70.0001 139.6242 0002915 265.9186  94.1640 14.98330220 43909,6950.192,96.107,574.083,570.031,0.0
55961.0,STARLINK-5933,PAYLOAD,2023-12-23 14:48:16,14.98330586,0.0002903,70.0001,139.2875,265.5462,94.5366,6.2303e-05,6.5e-06,0.0,0 STARLINK-5933,1 55961U 23037AZ  23357.61685921  .00000650  00000-0  62303-4 0  9998,2 55961  70.0001 139.2875 0002903 265.5462  94.5366 14.98330586 43585,6950.191,96.107,574.074,570.038,0.0
55961.0,STARLINK-5933,PAYLOAD,2023-12-23 19:36:40,14.98334273,0.0002858,70.0002,138.7827,263.8143,96.2691,9.9946e-05,1.1e-05,0.0,0 STARLINK-5933,1 55961U 23037AZ  23357.81713541  .00001100  00000-0  99946-4 0  9994,2 55961  70.0002 138.7827 0002858 263.8143  96.2691 14.98334273 43614,6950.18,96.107,574.031,570.058,0.0
55961.0,STARLINK-5933,PAYLOAD,2023-12-24 11:38:01,14.9833108,0.0002837,70.0004,137.0999,261.1847,98.8991,1.9499e-05,1.4e-06,0.0,0 STARLINK-5933,1 55961U 23037AZ  23358.48473856  .00000140  00000-0  19499-4 0  9998,2 55961  70.0004 137.0999 0002837 261.1847  98.8991 14.98331080 44050,6950.19,96.107,574.026,570.083,0.0
55961.0,STARLINK-5933,PAYLOAD,2023-12-24 14:50:17,14.98332228,0.0002713,70.0008,136.7638,255.3486,104.7372,3.1342e-05,2.81e-06,0.0,0 STARLINK-5933,1 55961U 23037AZ  23358.61825700  .00000281  00000-0  31342-4 0  9999,2 55961  70.0008 136.7638 0002713 255.3486 104.7372 14.98332228 43736,6950.186,96.107,573.937,570.165,0.0
55961.0,STARLINK-5933,PAYLOAD,2023-12-24 19:38:41,14.98332498,0.0002758,70.0006,136.2584,256.3676,103.7176,6.0087e-05,6.24e-06,0.0,0 STARLINK-5933,1 55961U 23037AZ  23358.81853593  .00000624  00000-0  60087-4 0  9991,2 55961  70.0006 136.2584 0002758 256.3676 103.7176 14.98332498 43763,6950.185,96.107,573.967,570.133,0.0
55961.0,STARLINK-5933,PAYLOAD,2023-12-25 11:40:02,14.98330009,0.0002915,70.0002,134.5743,267.7517,92.3308,-4.3131e-05,-6.08e-06,0.0,0 STARLINK-5933,1 55961U 23037AZ  23359.48613913 -.00000608  00000-0 -43131-4 0  9990,2 55961  70.0002 134.5743 0002915 267.7517  92.3308 14.98330009 44208,6950.193,96.107,574.084,570.032,0.0
55961.0,STARLINK-5933,PAYLOAD,2023-12-25 14:52:18,14.98329951,0.0003051,69.9997,134.237,271.7049,88.3761,-4.2484e-05,-6e-06,0.0,0 STARLINK-5933,1 55961U 23037AZ  23359.61965932 -.00000600  00000-0 -42484-4 0  9998,2 55961  69.9997 134.2370 0003051 271.7049  88.3761 14.98329951 43883,6950.193,96.107,574.179,569.938,0.0
